FENGYUN 1C DEB          
1 38499U 99025ESJ 17345.56850624  .00001070  00000-0  10832-2 0  9998
2 38499  98.4035 209.1096 0246521  31.1674 330.3832 13.66410165355630
